{"type": "FeatureCollection", "features": [ {"type": "Feature", "properties": {"norad_id": 35142, "name": "FENGYUN 1C DEB", "group": "fengyun-1c-debris", "lat": -29.746192921006443, "lon": 144.17754534181327, "alt_km": 865.1061324868342, "timestamp": "2025-12-02T23:34:15.803837+00:00", "meta": {"OBJECT_NAME": "FENGYUN 1C DEB", "OBJECT_ID": "1999-025DLW", "EPOCH": "2025-12-01T11:02:09.839904", "MEAN_MOTION": 13.9049819, "ECCENTRICITY": 0.0107348, "INCLINATION": 99.0446, "RA_OF_ASC_NODE": 327.9188, "ARG_OF_PERICENTER": 244.9528, "MEAN_ANOMALY": 269.5822, "EPHEMERIS_TYPE": 0, "CLASSIFICATION_TYPE": "U", "NORAD_CAT_ID": 35142, "ELEMENT_SET_NO": 999, "REV_AT_EPOCH": 85532, "BSTAR": 0.00024065741, "MEAN_MOTION_DOT": 2.7e-06, "MEAN_MOTION_DDOT": 0}, "tle": {"line1": "1 35142U 99025DLW 25335.45983611  .00000270  00000+0  24066-3 0  9994", "line2": "2 35142  99.0446 327.9188 0107348 244.9528 269.5822 13.90498190855325"}}, "geometry": {"type": "Point", "coordinates": [144.17754534181327, -29.746192921006443]}}, {"type": "Feature", "properties": {"norad_id": 35144, "name": "FENGYUN 1C DEB", "group": "fengyun-1c-debris", "lat": -47.58126660211026, "lon": -97.77585706265822, "alt_km": 721.8174607161891, "timestamp": "2025-12-02T23:34:15.803847+00:00", "meta": {"OBJECT_NAME": "FENGYUN 1C DEB", "OBJECT_ID": "1999-025DLY", "EPOCH": "2025-12-01T07:01:13.475712", "MEAN_MOTION": 14.58759399, "ECCENTRICITY": 0.00264429, "INCLINATION": 98.6988, "RA_OF_ASC_NODE": 90.1017, "ARG_OF_PERICENTER": 37.6007, "MEAN_ANOMALY": 322.7033, "EPHEMERIS_TYPE": 0, "CLASSIFICATION_TYPE": "U", "NORAD_CAT_ID": 35144, "ELEMENT_SET_NO": 999, "REV_AT_EPOCH": 65046, "BSTAR": 0.003085141, "MEAN_MOTION_DOT": 0.00014456, "MEAN_MOTION_DDOT": 0}, "tle": {"line1": "1 35144U 99025DLY 25335.29251708  .00014456  00000+0  30851-2 0  9992", "line2": "2 35144  98.6988  90.1017 0026442  37.6007 322.7033 14.58759399650467"}}, "geometry": {"type": "Point", "coordinates": [-97.77585706265822, -47.58126660211026]}}, {"type": "Feature", "properties": {"norad_id": 35147, "name": "FENGYUN 1C DEB", "group": "fengyun-1c-debris", "lat": -69.65716178635617, "lon": -158.18019942486748, "alt_km": 638.6186617063131, "timestamp": "2025-12-02T23:34:15.803857+00:00", "meta": {"OBJECT_NAME": "FENGYUN 1C DEB", "OBJECT_ID": "1999-025DMB", "EPOCH": "2025-11-29T22:43:43.186368", "MEAN_MOTION": 14.73535203, "ECCENTRICITY": 0.00278583, "INCLINATION": 99.4866, "RA_OF_ASC_NODE": 45.0836, "ARG_OF_PERICENTER": 237.5215, "MEAN_ANOMALY": 122.3295, "EPHEMERIS_TYPE": 0, "CLASSIFICATION_TYPE": "U", "NORAD_CAT_ID": 35147, "ELEMENT_SET_NO": 999, "REV_AT_EPOCH": 74116, "BSTAR": 0.0038392688, "MEAN_MOTION_DOT": 0.00025143, "MEAN_MOTION_DDOT": 0}, "tle": {"line1": "1 35147U 99025DMB 25333.94702762  .00025143  00000+0  38393-2 0  9990", "line2": "2 35147  99.4866  45.0836 0027858 237.5215 122.3295 14.73535203741161"}}, "geometry": {"type": "Point", "coordinates": [-158.18019942486748, -69.65716178635617]}}, {"type": "Feature", "properties": {"norad_id": 35152, "name": "FENGYUN 1C DEB", "group": "fengyun-1c-debris", "lat": 11.661044604276134, "lon": -18.591278733594258, "alt_km": 1063.076095883338, "timestamp": "2025-12-02T23:34:15.803868+00:00", "meta": {"OBJECT_NAME": "FENGYUN 1C DEB", "OBJECT_ID": "1999-025DMG", "EPOCH": "2025-11-30T18:26:10.864320", "MEAN_MOTION": 13.76409057, "ECCENTRICITY": 0.01949772, "INCLINATION": 99.8188, "RA_OF_ASC_NODE": 157.0773, "ARG_OF_PERICENTER": 46.4167, "MEAN_ANOMALY": 315.2982, "EPHEMERIS_TYPE": 0, "CLASSIFICATION_TYPE": "U", "NORAD_CAT_ID": 35152, "ELEMENT_SET_NO": 999, "REV_AT_EPOCH": 62028, "BSTAR": 0.00061954414, "MEAN_MOTION_DOT": 6.5e-06, "MEAN_MOTION_DDOT": 0}, "tle": {"line1": "1 35152U 99025DMG 25334.76818130  .00000650  00000+0  61954-3 0  9990", "line2": "2 35152  99.8188 157.0773 0194977  46.4167 315.2982 13.76409057620286"}}, "geometry": {"type": "Point", "coordinates": [-18.591278733594258, 11.661044604276134]}}, {"type": "Feature", "properties": {"norad_id": 35153, "name": "FENGYUN 1C DEB", "group": "fengyun-1c-debris", "lat": -35.18351694487664, "lon": 41.490007166858184, "alt_km": 678.967832211516, "timestamp": "2025-12-02T23:34:15.803878+00:00", "meta": {"OBJECT_NAME": "FENGYUN 1C DEB", "OBJECT_ID": "1999-025DMH", "EPOCH": "2025-12-01T22:10:07.722336", "MEAN_MOTION": 14.73639161, "ECCENTRICITY": 0.01712401, "INCLINATION": 98.9025, "RA_OF_ASC_NODE": 226.6732, "ARG_OF_PERICENTER": 116.7761, "MEAN_ANOMALY": 245.1077, "EPHEMERIS_TYPE": 0, "CLASSIFICATION_TYPE": "U", "NORAD_CAT_ID": 35153, "ELEMENT_SET_NO": 999, "REV_AT_EPOCH": 97058, "BSTAR": 0.00038117303, "MEAN_MOTION_DOT": 3.072e-05, "MEAN_MOTION_DDOT": 0}, "tle": {"line1": "1 35153U 99025DMH 25335.92370049  .00003072  00000+0  38117-3 0  9998", "line2": "2 35153  98.9025 226.6732 0171240 116.7761 245.1077 14.73639161970580"}}, "geometry": {"type": "Point", "coordinates": [41.490007166858184, -35.18351694487664]}}, {"type": "Feature", "properties": {"norad_id": 35154, "name": "FENGYUN 1C DEB", "group": "fengyun-1c-debris", "lat": -76.57342993243503, "lon": 141.917302296383, "alt_km": 948.3479184073267, "timestamp": "2025-12-02T23:34:15.803888+00:00", "meta": {"OBJECT_NAME": "FENGYUN 1C DEB", "OBJECT_ID": "1999-025DMJ", "EPOCH": "2025-11-29T14:43:04.661760", "MEAN_MOTION": 14.18867263, "ECCENTRICITY": 0.01797991, "INCLINATION": 99.4213, "RA_OF_ASC_NODE": 94.2695, "ARG_OF_PERICENTER": 79.3122, "MEAN_ANOMALY": 282.824, "EPHEMERIS_TYPE": 0, "CLASSIFICATION_TYPE": "U", "NORAD_CAT_ID": 35154, "ELEMENT_SET_NO": 999, "REV_AT_EPOCH": 64391, "BSTAR": 0.00034673484, "MEAN_MOTION_DOT": 7.98e-06, "MEAN_MOTION_DDOT": 0}, "tle": {"line1": "1 35154U 99025DMJ 25333.61324840  .00000798  00000+0  34673-3 0  9996", "line2": "2 35154  99.4213  94.2695 0179799  79.3122 282.8240 14.18867263643914"}}, "geometry": {"type": "Point", "coordinates": [141.917302296383, -76.57342993243503]}}, {"type": "Feature", "properties": {"norad_id": 35155, "name": "FENGYUN 1C DEB", "group": "fengyun-1c-debris", "lat": 28.122623548207272, "lon": -15.53812670275774, "alt_km": 820.5500920969662, "timestamp": "2025-12-02T23:34:15.803898+00:00", "meta": {"OBJECT_NAME": "FENGYUN 1C DEB", "OBJECT_ID": "1999-025DMK", "EPOCH": "2025-12-01T18:40:23.892384", "MEAN_MOTION": 14.19237116, "ECCENTRICITY": 0.00262936, "INCLINATION": 98.5005, "RA_OF_ASC_NODE": 347.8913, "ARG_OF_PERICENTER": 103.4458, "MEAN_ANOMALY": 256.9651, "EPHEMERIS_TYPE": 0, "CLASSIFICATION_TYPE": "U", "NORAD_CAT_ID": 35155, "ELEMENT_SET_NO": 999, "REV_AT_EPOCH": 72558, "BSTAR": 0.00064940785, "MEAN_MOTION_DOT": 1.325e-05, "MEAN_MOTION_DDOT": 0}, "tle": {"line1": "1 35155U 99025DMK 25335.77805431  .00001325  00000+0  64941-3 0  9994", "line2": "2 35155  98.5005 347.8913 0026293 103.4458 256.9651 14.19237116725586"}}, "geometry": {"type": "Point", "coordinates": [-15.53812670275774, 28.122623548207272]}}, {"type": "Feature", "properties": {"norad_id": 35156, "name": "FENGYUN 1C DEB", "group": "fengyun-1c-debris", "lat": 50.942426092790306, "lon": -47.27936736806347, "alt_km": 866.5185253038053, "timestamp": "2025-12-02T23:34:15.803908+00:00", "meta": {"OBJECT_NAME": "FENGYUN 1C DEB", "OBJECT_ID": "1999-025DML", "EPOCH": "2025-11-27T10:32:28.815360", "MEAN_MOTION": 14.10601279, "ECCENTRICITY": 0.0035456, "INCLINATION": 98.7507, "RA_OF_ASC_NODE": 318.2667, "ARG_OF_PERICENTER": 190.6926, "MEAN_ANOMALY": 169.3495, "EPHEMERIS_TYPE": 0, "CLASSIFICATION_TYPE": "U", "NORAD_CAT_ID": 35156, "ELEMENT_SET_NO": 999, "REV_AT_EPOCH": 63828, "BSTAR": 0.00033278168, "MEAN_MOTION_DOT": 5.54e-06, "MEAN_MOTION_DDOT": 0}, "tle": {"line1": "1 35156U 99025DML 25331.43922240  .00000554  00000+0  33278-3 0  9994", "line2": "2 35156  98.7507 318.2667 0035456 190.6926 169.3495 14.10601279638282"}}, "geometry": {"type": "Point", "coordinates": [-47.27936736806347, 50.942426092790306]}}, {"type": "Feature", "properties": {"norad_id": 35159, "name": "FENGYUN 1C DEB", "group": "fengyun-1c-debris", "lat": -31.69689728275032, "lon": 57.31251606289396, "alt_km": 753.831124257048, "timestamp": "2025-12-02T23:34:15.803919+00:00", "meta": {"OBJECT_NAME": "FENGYUN 1C DEB", "OBJECT_ID": "1999-025DMP", "EPOCH": "2025-11-29T04:26:18.851424", "MEAN_MOTION": 14.44874361, "ECCENTRICITY": 0.00122991, "INCLINATION": 98.8433, "RA_OF_ASC_NODE": 47.8452, "ARG_OF_PERICENTER": 209.872, "MEAN_ANOMALY": 177.7068, "EPHEMERIS_TYPE": 0, "CLASSIFICATION_TYPE": "U", "NORAD_CAT_ID": 35159, "ELEMENT_SET_NO": 999, "REV_AT_EPOCH": 61285, "BSTAR": 0.002158088, "MEAN_MOTION_DOT": 7.477e-05, "MEAN_MOTION_DDOT": 0}, "tle": {"line1": "1 35159U 99025DMP 25333.18494041  .00007477  00000+0  21581-2 0  9998", "line2": "2 35159  98.8433  47.8452 0012299 209.8720 177.7068 14.44874361612851"}}, "geometry": {"type": "Point", "coordinates": [57.31251606289396, -31.69689728275032]}}, {"type": "Feature", "properties": {"norad_id": 35160, "name": "FENGYUN 1C DEB", "group": "fengyun-1c-debris", "lat": 9.665194319600642, "lon": 89.2279868601989, "alt_km": 797.3517507811439, "timestamp": "2025-12-02T23:34:15.803929+00:00", "meta": {"OBJECT_NAME": "FENGYUN 1C DEB", "OBJECT_ID": "1999-025DMQ", "EPOCH": "2025-11-29T13:34:46.288128", "MEAN_MOTION": 14.35897324, "ECCENTRICITY": 0.01758326, "INCLINATION": 99.1549, "RA_OF_ASC_NODE": 87.1744, "ARG_OF_PERICENTER": 278.0093, "MEAN_ANOMALY": 80.1172, "EPHEMERIS_TYPE": 0, "CLASSIFICATION_TYPE": "U", "NORAD_CAT_ID": 35160, "ELEMENT_SET_NO": 999, "REV_AT_EPOCH": 64742, "BSTAR": 0.00040702484, "MEAN_MOTION_DOT": 1.35e-05, "MEAN_MOTION_DDOT": 0}, "tle": {"line1": "1 35160U 99025DMQ 25333.56581352  .00001350  00000+0  40702-3 0  9995", "line2": "2 35160  99.1549  87.1744 0175832 278.0093  80.1172 14.35897324647428"}}, "geometry": {"type": "Point", "coordinates": [89.2279868601989, 9.665194319600642]}}]}